{
  "type": "FeatureCollection",
  "features": [
    {
      "type": "Feature",
      "properties": {
        "norad_id": 28051,
        "name": "IRS-P6 (RESOURCESAT-1)",
        "group": "resource",
        "lat": -77.84643961985641,
        "lon": 76.87965694042826,
        "alt_km": 803.19254921824,
        "timestamp": "2025-12-20T16:47:35.947820+00:00",
        "meta_object_name": "IRS-P6 (RESOURCESAT-1)",
        "meta_object_id": "2003-046A",
        "meta_epoch": "2025-12-20T12:46:51.070656",
        "meta_mean_motion": 14.36079075,
        "meta_eccentricity": 0.0064632,
        "meta_inclination": 98.217,
        "meta_ra_of_asc_node": 34.5787,
        "meta_arg_of_pericenter": 157.3521,
        "meta_mean_anomaly": 337.1892,
        "meta_ephemeris_type": 0,
        "meta_classification_type": "U",
        "meta_norad_cat_id": 28051,
        "meta_element_set_no": 999,
        "meta_rev_at_epoch": 15488,
        "meta_bstar": 0.0001519,
        "meta_mean_motion_dot": 4.12e-06,
        "meta_mean_motion_ddot": 0,
        "tle_line1": "1 28051U 03046A   25354.53253554  .00000412  00000+0  15190-3 0  9995",
        "tle_line2": "2 28051  98.2170  34.5787 0064632 157.3521 337.1892 14.36079075154885"
      },
      "geometry": {
        "type": "Point",
        "coordinates": [
          76.87965694042826,
          -77.84643961985641
        ]
      }
    },
    {
      "type": "Feature",
      "properties": {
        "norad_id": 28220,
        "name": "SHIYAN-1 (SY-1)",
        "group": "resource",
        "lat": -82.06482476903388,
        "lon": 152.2565511555682,
        "alt_km": 484.8549113062045,
        "timestamp": "2025-12-20T16:47:35.947831+00:00",
        "meta_object_name": "SHIYAN-1 (SY-1)",
        "meta_object_id": "2004-012A",
        "meta_epoch": "2025-12-20T10:54:15.637824",
        "meta_mean_motion": 15.28330123,
        "meta_eccentricity": 0.0005231,
        "meta_inclination": 97.893,
        "meta_ra_of_asc_node": 56.4489,
        "meta_arg_of_pericenter": 293.6442,
        "meta_mean_anomaly": 66.4247,
        "meta_ephemeris_type": 0,
        "meta_classification_type": "U",
        "meta_norad_cat_id": 28220,
        "meta_element_set_no": 999,
        "meta_rev_at_epoch": 18374,
        "meta_bstar": 0.00035175,
        "meta_mean_motion_dot": 9.629e-05,
        "meta_mean_motion_ddot": 0,
        "tle_line1": "1 28220U 04012A   25354.45434766  .00009629  00000+0  35175-3 0  9998",
        "tle_line2": "2 28220  97.8930  56.4489 0005231 293.6442  66.4247 15.28330123183749"
      },
      "geometry": {
        "type": "Point",
        "coordinates": [
          152.2565511555682,
          -82.06482476903388
        ]
      }
    },
    {
      "type": "Feature",
      "properties": {
        "norad_id": 28376,
        "name": "AURA",
        "group": "resource",
        "lat": 2.5727842379536745,
        "lon": 125.34031712309464,
        "alt_km": 692.6228094935332,
        "timestamp": "2025-12-20T16:47:35.947842+00:00",
        "meta_object_name": "AURA",
        "meta_object_id": "2004-026A",
        "meta_epoch": "2025-12-20T11:03:12.206016",
        "meta_mean_motion": 14.60962954,
        "meta_eccentricity": 0.000137,
        "meta_inclination": 98.3195,
        "meta_ra_of_asc_node": 304.7233,
        "meta_arg_of_pericenter": 92.933,
        "meta_mean_anomaly": 267.2027,
        "meta_ephemeris_type": 0,
        "meta_classification_type": "U",
        "meta_norad_cat_id": 28376,
        "meta_element_set_no": 999,
        "meta_rev_at_epoch": 14011,
        "meta_bstar": 0.00016079,
        "meta_mean_motion_dot": 7.4e-06,
        "meta_mean_motion_ddot": 0,
        "tle_line1": "1 28376U 04026A   25354.46055794  .00000740  00000+0  16079-3 0  9993",
        "tle_line2": "2 28376  98.3195 304.7233 0001370  92.9330 267.2027 14.60962954140111"
      },
      "geometry": {
        "type": "Point",
        "coordinates": [
          125.34031712309464,
          2.5727842379536745
        ]
      }
    },
    {
      "type": "Feature",
      "properties": {
        "norad_id": 28649,
        "name": "IRS-P5 (CARTOSAT-1)",
        "group": "resource",
        "lat": 26.822428364138418,
        "lon": -155.39560768043364,
        "alt_km": 595.7658523053569,
        "timestamp": "2025-12-20T16:47:35.947853+00:00",
        "meta_object_name": "IRS-P5 (CARTOSAT-1)",
        "meta_object_id": "2005-017A",
        "meta_epoch": "2025-12-19T23:59:49.912800",
        "meta_mean_motion": 14.90427288,
        "meta_eccentricity": 8.04e-05,
        "meta_inclination": 97.5486,
        "meta_ra_of_asc_node": 20.0911,
        "meta_arg_of_pericenter": 50.7358,
        "meta_mean_anomaly": 309.3932,
        "meta_ephemeris_type": 0,
        "meta_classification_type": "U",
        "meta_norad_cat_id": 28649,
        "meta_element_set_no": 999,
        "meta_rev_at_epoch": 11712,
        "meta_bstar": 0.00010855912,
        "meta_mean_motion_dot": 1.006e-05,
        "meta_mean_motion_ddot": 0,
        "tle_line1": "1 28649U 05017A   25353.99988325  .00001006  00000+0  10856-3 0  9992",
        "tle_line2": "2 28649  97.5486  20.0911 0000804  50.7358 309.3932 14.90427288117129"
      },
      "geometry": {
        "type": "Point",
        "coordinates": [
          -155.39560768043364,
          26.822428364138418
        ]
      }
    },
    {
      "type": "Feature",
      "properties": {
        "norad_id": 28893,
        "name": "SINAH 1",
        "group": "resource",
        "lat": 68.63765117948621,
        "lon": -34.91753505799024,
        "alt_km": 662.6905902725894,
        "timestamp": "2025-12-20T16:47:35.947864+00:00",
        "meta_object_name": "SINAH 1",
        "meta_object_id": "2005-043D",
        "meta_epoch": "2025-12-20T11:22:24.616992",
        "meta_mean_motion": 14.63970021,
        "meta_eccentricity": 0.0015635,
        "meta_inclination": 98.2608,
        "meta_ra_of_asc_node": 123.052,
        "meta_arg_of_pericenter": 114.3452,
        "meta_mean_anomaly": 245.9384,
        "meta_ephemeris_type": 0,
        "meta_classification_type": "U",
        "meta_norad_cat_id": 28893,
        "meta_element_set_no": 999,
        "meta_rev_at_epoch": 7437,
        "meta_bstar": 6.6136e-05,
        "meta_mean_motion_dot": 2.98e-06,
        "meta_mean_motion_ddot": 0,
        "tle_line1": "1 28893U 05043D   25354.47389603  .00000298  00000+0  66136-4 0  9995",
        "tle_line2": "2 28893  98.2608 123.0520 0015635 114.3452 245.9384 14.63970021 74377"
      },
      "geometry": {
        "type": "Point",
        "coordinates": [
          -34.91753505799024,
          68.63765117948621
        ]
      }
    },
    {
      "type": "Feature",
      "properties": {
        "norad_id": 29079,
        "name": "EROS B",
        "group": "resource",
        "lat": -76.78170217718773,
        "lon": -101.65151512275978,
        "alt_km": 362.7872808012935,
        "timestamp": "2025-12-20T16:47:35.947875+00:00",
        "meta_object_name": "EROS B",
        "meta_object_id": "2006-014A",
        "meta_epoch": "2025-12-20T12:38:08.298816",
        "meta_mean_motion": 15.70642125,
        "meta_eccentricity": 0.0003519,
        "meta_inclination": 97.3465,
        "meta_ra_of_asc_node": 111.4853,
        "meta_arg_of_pericenter": 310.9409,
        "meta_mean_anomaly": 49.1549,
        "meta_ephemeris_type": 0,
        "meta_classification_type": "U",
        "meta_norad_cat_id": 29079,
        "meta_element_set_no": 999,
        "meta_rev_at_epoch": 9202,
        "meta_bstar": 0.0010632,
        "meta_mean_motion_dot": 0.00132774,
        "meta_mean_motion_ddot": 0,
        "tle_line1": "1 29079U 06014A   25354.52648494  .00132774  00000+0  10632-2 0  9996",
        "tle_line2": "2 29079  97.3465 111.4853 0003519 310.9409  49.1549 15.70642125 92028"
      },
      "geometry": {
        "type": "Point",
        "coordinates": [
          -101.65151512275978,
          -76.78170217718773
        ]
      }
    },
    {
      "type": "Feature",
      "properties": {
        "norad_id": 29228,
        "name": "RESURS-DK 1",
        "group": "resource",
        "lat": -11.832174288942877,
        "lon": 76.87546004802616,
        "alt_km": 533.7630910359503,
        "timestamp": "2025-12-20T16:47:35.947885+00:00",
        "meta_object_name": "RESURS-DK 1",
        "meta_object_id": "2006-021A",
        "meta_epoch": "2025-12-20T10:29:55.559040",
        "meta_mean_motion": 15.12200316,
        "meta_eccentricity": 0.000687,
        "meta_inclination": 69.9339,
        "meta_ra_of_asc_node": 81.9448,
        "meta_arg_of_pericenter": 252.5475,
        "meta_mean_anomaly": 107.494,
        "meta_ephemeris_type": 0,
        "meta_classification_type": "U",
        "meta_norad_cat_id": 29228,
        "meta_element_set_no": 999,
        "meta_rev_at_epoch": 7554,
        "meta_bstar": 0.00011187,
        "meta_mean_motion_dot": 1.829e-05,
        "meta_mean_motion_ddot": 0,
        "tle_line1": "1 29228U 06021A   25354.43744860  .00001829  00000+0  11187-3 0  9997",
        "tle_line2": "2 29228  69.9339  81.9448 0006870 252.5475 107.4940 15.12200316 75546"
      },
      "geometry": {
        "type": "Point",
        "coordinates": [
          76.87546004802616,
          -11.832174288942877
        ]
      }
    }
  ]
}